OBJECT_NAME,OBJECT_ID,EPOCH,MEAN_MOTION,ECCENTRICITY,INCLINATION,RA_OF_ASC_NODE,ARG_OF_PERICENTER,MEAN_ANOMALY,EPHEMERIS_TYPE,CLASSIFICATION_TYPE,NORAD_CAT_ID,ELEMENT_SET_NO,REV_AT_EPOCH,BSTAR,MEAN_MOTION_DOT,MEAN_MOTION_DDOT
ASTRA 2G,2014-089A,2026-07-23T06:16:27.476832,1.00273115,.00045821,0.0642,42.4164,37.5606,343.3011,0,U,40364,999,4232,0,.154E-5,0
FENGYUN 2G,2014-090A,2026-07-23T01:04:38.584992,1.00278405,.0003692,5.7273,72.3795,171.1923,172.9103,0,U,40367,999,4235,0,-.303E-5,0
MUOS-3,2015-002A,2026-07-23T06:04:06.161376,1.00273070,.00541537,4.5883,43.6500,177.0699,155.7970,0,U,40374,999,4194,0,-.127E-5,0
INMARSAT 5-F2,2015-005A,2026-07-23T02:27:32.285664,1.00268738,.00008851,0.0187,58.4104,78.5141,145.8001,0,U,40384,999,4135,0,-.281E-5,0
ABS-3A,2015-010A,2026-07-23T06:07:35.825664,1.00270447,.00016781,0.0136,55.6867,7.4445,326.8000,0,U,40424,999,4173,0,-.22E-6,0
EUTELSAT 115 WEST B,2015-010B,2026-07-22T21:06:16.286688,1.00272237,.00004064,0.0080,192.9541,120.3772,188.9522,0,U,40425,999,4174,0,-.21E-6,0
EXPRESS-AM7,2015-012A,2026-07-23T06:19:49.653696,1.00277663,.00031187,0.0116,21.2515,110.6307,304.0979,0,U,40505,999,4136,0,.155E-5,0
BEIDOU-3S IGSO-1S,2015-019A,2026-07-22T20:41:06.522720,1.00291059,.00386968,49.1249,295.0310,195.6676,212.2841,0,U,40549,999,4143,0,-.173E-5,0
THOR 7,2015-022A,2026-07-23T06:08:13.266240,1.00271137,.00028293,0.0057,217.4944,260.5367,274.3533,0,U,40613,999,4117,0,-.4E-7,0
TURKMENALEM52E/MONACOSAT,2015-023A,2026-07-23T06:23:04.343136,1.00275642,.00029369,0.0139,84.4046,40.4407,323.9698,0,U,40617,999,4121,0,.108E-5,0
DIRECTV 15,2015-026A,2026-07-23T02:13:46.011360,1.00275152,.00006721,0.0228,79.8798,299.3070,212.2078,0,U,40663,999,4082,0,-.99E-6,0
SKY MEXICO-1,2015-026B,2026-07-23T06:22:38.754912,1.00270417,.0002746,0.0136,343.1539,153.1069,181.5917,0,U,40664,999,4081,0,-.23E-5,0
METEOSAT-11 (MSG-4),2015-034A,2026-07-23T06:11:05.490816,1.00274377,.00019656,3.2885,70.8742,355.6195,336.5603,0,U,40732,999,757,0,.64E-6,0
STAR ONE C4,2015-034B,2026-07-23T07:00:23.037120,1.00272301,.00017125,0.0412,305.7120,145.8855,244.5238,0,U,40733,999,4037,0,-.26E-5,0
WGS F7 (USA 263),2015-036A,2026-07-22T20:42:24.535008,1.00270455,.00001834,0.0166,53.7661,50.8178,321.6210,0,U,40746,999,4022,0,.21E-6,0
INTELSAT 34 (IS-34),2015-039A,2026-07-23T05:52:37.261344,1.00270589,.00005934,0.0086,9.4733,31.9146,292.2518,0,U,40874,999,3999,0,-.281E-5,0
EUTELSAT 8 WEST B,2015-039B,2026-07-23T06:06:13.457952,1.00271580,.0003689,0.0635,6.1097,110.8630,267.5683,0,U,40875,999,4001,0,-.61E-6,0
GSAT-6,2015-041A,2026-07-23T02:28:38.665920,1.00272034,.00028926,2.0086,82.1354,37.4233,300.9672,0,U,40880,999,3995,0,-.158E-5,0
INMARSAT 5-F3,2015-042A,2026-07-22T18:38:38.457600,1.00270709,.00004175,0.0176,57.5608,88.6231,253.5881,0,U,40882,999,3992,0,.54E-6,0
MUOS-4,2015-044A,2026-07-23T03:04:36.232896,1.00272318,.00564237,4.3959,42.4331,3.9348,15.6279,0,U,40887,999,3992,0,-.91E-6,0
TJS-1,2015-046A,2026-07-23T07:02:21.715296,1.00271394,.0005323,0.4137,84.7462,22.7426,94.1463,0,U,40892,999,3993,0,-.152E-5,0
EXPRESS-AM8,2015-048A,2026-07-23T06:04:28.625376,1.00271310,.00004546,0.0215,295.7993,1.6327,80.6728,0,U,40895,999,3970,0,-.107E-5,0
BEIDOU-3S IGSO-2S,2015-053A,2026-07-23T03:09:20.778336,1.00251983,.00658964,49.1651,258.3502,193.8088,348.7982,0,U,40938,999,3971,0,-.85E-6,0
SKY MUSTER 1 (NBN1A),2015-054A,2026-07-22T23:57:48.556224,1.00270257,.00017394,0.0107,33.5126,81.1966,325.7455,0,U,40940,999,3961,0,0,0
ARSAT 2,2015-054B,2026-07-23T06:55:48.825120,1.00271949,.00022985,0.0461,274.1347,194.1104,215.7303,0,U,40941,999,3966,0,-.22E-5,0
MORELOS 3,2015-056A,2026-07-23T07:29:42.698400,1.00271995,.00007802,3.2171,15.9794,176.4548,107.9409,0,U,40946,999,3964,0,-.4E-6,0
APSTAR-9,2015-059A,2026-07-23T06:48:54.365184,1.00270239,.0003607,0.0502,281.5263,260.0715,3.6370,0,U,40982,999,3948,0,-.262E-5,0
TURKSAT 4B,2015-060A,2026-07-23T06:22:41.879136,1.00271571,.00022961,0.0206,297.7708,173.5393,335.3247,0,U,40984,999,3946,0,.12E-5,0
ZHONGXING-2C,2015-063A,2026-07-23T05:28:38.664192,1.00268962,.00082858,0.3645,88.4378,99.3627,298.7367,0,U,41021,999,3934,0,-.319E-5,0
GSAT-15,2015-065A,2026-07-23T01:27:13.832064,1.00271328,.00035999,0.0981,263.1082,180.1821,332.8188,0,U,41028,999,3915,0,-.253E-5,0
BADR-7 (ARABSAT-6B),2015-065B,2026-07-23T06:15:50.037120,1.00272334,.00048553,0.0400,226.3176,336.5367,218.0677,0,U,41029,999,3912,0,.149E-5,0
