ASTRA 2G                
1 40364U 14089A   26204.26142913  .00000154  00000+0  00000+0 0  9999
2 40364   0.0642  42.4164 0004582  37.5606 343.3011  1.00273115 42324
FENGYUN 2G              
1 40367U 14090A   26204.04489103 -.00000303  00000+0  00000+0 0  9992
2 40367   5.7273  72.3795 0003692 171.1923 172.9103  1.00278405 42357
MUOS-3                  
1 40374U 15002A   26204.25284909 -.00000127  00000+0  00000+0 0  9998
2 40374   4.5883  43.6500 0054153 177.0699 155.7970  1.00273070 41945
INMARSAT 5-F2           
1 40384U 15005A   26204.10245701 -.00000281  00000+0  00000+0 0  9994
2 40384   0.0187  58.4104 0000885  78.5141 145.8001  1.00268738 41353
ABS-3A                  
1 40424U 15010A   26204.25527576 -.00000022  00000+0  00000+0 0  9997
2 40424   0.0136  55.6867 0001678   7.4445 326.8000  1.00270447 41738
EUTELSAT 115 WEST B     
1 40425U 15010B   26203.87935517 -.00000021  00000+0  00000+0 0  9992
2 40425   0.0080 192.9541 0000406 120.3772 188.9522  1.00272237 41743
EXPRESS-AM7             
1 40505U 15012A   26204.26376914  .00000155  00000+0  00000+0 0  9994
2 40505   0.0116  21.2515 0003118 110.6307 304.0979  1.00277663 41369
BEIDOU-3S IGSO-1S       
1 40549U 15019A   26203.86188105 -.00000173  00000+0  00000+0 0  9998
2 40549  49.1249 295.0310 0038696 195.6676 212.2841  1.00291059 41434
THOR 7                  
1 40613U 15022A   26204.25570910 -.00000004  00000+0  00000+0 0  9990
2 40613   0.0057 217.4944 0002829 260.5367 274.3533  1.00271137 41171
TURKMENALEM52E/MONACOSAT
1 40617U 15023A   26204.26602249  .00000108  00000+0  00000+0 0  9991
2 40617   0.0139  84.4046 0002936  40.4407 323.9698  1.00275642 41213
DIRECTV 15              
1 40663U 15026A   26204.09289365 -.00000099  00000+0  00000+0 0  9996
2 40663   0.0228  79.8798 0000672 299.3070 212.2078  1.00275152 40825
SKY MEXICO-1            
1 40664U 15026B   26204.26572633 -.00000230  00000+0  00000+0 0  9996
2 40664   0.0136 343.1539 0002746 153.1069 181.5917  1.00270417 40811
METEOSAT-11 (MSG-4)     
1 40732U 15034A   26204.25770244  .00000064  00000+0  00000+0 0  9992
2 40732   3.2885  70.8742 0001965 355.6195 336.5603  1.00274377  7573
STAR ONE C4             
1 40733U 15034B   26204.29193330 -.00000260  00000+0  00000+0 0  9991
2 40733   0.0412 305.7120 0001712 145.8855 244.5238  1.00272301 40379
WGS F7 (USA 263)        
1 40746U 15036A   26203.86278397  .00000021  00000+0  00000+0 0  9990
2 40746   0.0166  53.7661 0000183  50.8178 321.6210  1.00270455 40222
INTELSAT 34 (IS-34)     
1 40874U 15039A   26204.24487571 -.00000281  00000+0  00000+0 0  9993
2 40874   0.0086   9.4733 0000593  31.9146 292.2518  1.00270589 39997
EUTELSAT 8 WEST B       
1 40875U 15039B   26204.25432243 -.00000061  00000+0  00000+0 0  9997
2 40875   0.0635   6.1097 0003689 110.8630 267.5683  1.00271580 40014
GSAT-6                  
1 40880U 15041A   26204.10322530 -.00000158  00000+0  00000+0 0  9994
2 40880   2.0086  82.1354 0002892  37.4233 300.9672  1.00272034 39956
INMARSAT 5-F3           
1 40882U 15042A   26203.77683400  .00000054  00000+0  00000+0 0  9999
2 40882   0.0176  57.5608 0000417  88.6231 253.5881  1.00270709 39920
MUOS-4                  
1 40887U 15044A   26204.12819714 -.00000091  00000+0  00000+0 0  9997
2 40887   4.3959  42.4331 0056423   3.9348  15.6279  1.00272318 39920
TJS-1                   
1 40892U 15046A   26204.29330689 -.00000152  00000+0  00000+0 0  9990
2 40892   0.4137  84.7462 0005323  22.7426  94.1463  1.00271394 39935
EXPRESS-AM8             
1 40895U 15048A   26204.25310909 -.00000107  00000+0  00000+0 0  9994
2 40895   0.0215 295.7993 0000454   1.6327  80.6728  1.00271310 39707
BEIDOU-3S IGSO-2S       
1 40938U 15053A   26204.13149049 -.00000085  00000+0  00000+0 0  9995
2 40938  49.1651 258.3502 0065896 193.8088 348.7982  1.00251983 39718
SKY MUSTER 1 (NBN1A)    
1 40940U 15054A   26203.99847866  .00000000  00000+0  00000+0 0  9990
2 40940   0.0107  33.5126 0001739  81.1966 325.7455  1.00270257 39612
ARSAT 2                 
1 40941U 15054B   26204.28875955 -.00000220  00000+0  00000+0 0  9999
2 40941   0.0461 274.1347 0002298 194.1104 215.7303  1.00271949 39668
MORELOS 3               
1 40946U 15056A   26204.31229975 -.00000040  00000+0  00000+0 0  9995
2 40946   3.2171  15.9794 0000780 176.4548 107.9409  1.00271995 39640
APSTAR-9                
1 40982U 15059A   26204.28396256 -.00000262  00000+0  00000+0 0  9997
2 40982   0.0502 281.5263 0003607 260.0715   3.6370  1.00270239 39483
TURKSAT 4B              
1 40984U 15060A   26204.26576249  .00000120  00000+0  00000+0 0  9993
2 40984   0.0206 297.7708 0002296 173.5393 335.3247  1.00271571 39468
ZHONGXING-2C            
1 41021U 15063A   26204.22822528 -.00000319  00000+0  00000+0 0  9990
2 41021   0.3645  88.4378 0008285  99.3627 298.7367  1.00268962 39340
GSAT-15                 
1 41028U 15065A   26204.06057676 -.00000253  00000+0  00000+0 0  9992
2 41028   0.0981 263.1082 0003599 180.1821 332.8188  1.00271328 39159
BADR-7 (ARABSAT-6B)     
1 41029U 15065B   26204.26099580  .00000149  00000+0  00000+0 0  9998
2 41029   0.0400 226.3176 0004855 336.5367 218.0677  1.00272334 39122
